{
  "type": "FeatureCollection",
  "features": [
    {
      "type": "Feature",
      "properties": {
        "norad_id": 66989,
        "name": "CZ-4B R/B",
        "group": "last-30-days",
        "lat": -51.67946847439806,
        "lon": 76.12243066157475,
        "alt_km": 271.1653343649323,
        "timestamp": "2025-12-26T03:50:10.809807+00:00",
        "meta_object_name": "CZ-4B R/B",
        "meta_object_id": "2025-289B",
        "meta_epoch": "2025-12-25T15:49:10.266240",
        "meta_mean_motion": 15.70391772,
        "meta_eccentricity": 0.0139095,
        "meta_inclination": 97.5227,
        "meta_ra_of_asc_node": 65.9579,
        "meta_arg_of_pericenter": 313.9156,
        "meta_mean_anomaly": 45.069,
        "meta_ephemeris_type": 0,
        "meta_classification_type": "U",
        "meta_norad_cat_id": 66989,
        "meta_element_set_no": 999,
        "meta_rev_at_epoch": 259,
        "meta_bstar": 0.0006104,
        "meta_mean_motion_dot": 0.00132054,
        "meta_mean_motion_ddot": 7.3519e-06,
        "tle_line1": "1 66989U 25289B   25359.65914660  .00132054  73519-5  61040-3 0  9994",
        "tle_line2": "2 66989  97.5227  65.9579 0139095 313.9156  45.0690 15.70391772  2590"
      },
      "geometry": {
        "type": "Point",
        "coordinates": [
          76.12243066157475,
          -51.67946847439806
        ]
      }
    },
    {
      "type": "Feature",
      "properties": {
        "norad_id": 66990,
        "name": "TJS-22",
        "group": "last-30-days",
        "lat": -1.7981925039745639,
        "lon": -141.12362004860432,
        "alt_km": 35776.99047693614,
        "timestamp": "2025-12-26T03:50:10.809822+00:00",
        "meta_object_name": "TJS-22",
        "meta_object_id": "2025-290A",
        "meta_epoch": "2025-12-25T08:20:16.403712",
        "meta_mean_motion": 1.00271571,
        "meta_eccentricity": 0.0003394,
        "meta_inclination": 1.9567,
        "meta_ra_of_asc_node": 285.0365,
        "meta_arg_of_pericenter": 343.1605,
        "meta_mean_anomaly": 17.4298,
        "meta_ephemeris_type": 0,
        "meta_classification_type": "U",
        "meta_norad_cat_id": 66990,
        "meta_element_set_no": 999,
        "meta_rev_at_epoch": 28,
        "meta_bstar": 0,
        "meta_mean_motion_dot": 1.5e-07,
        "meta_mean_motion_ddot": 0,
        "tle_line1": "1 66990U 25290A   25359.34741208  .00000015  00000+0  00000+0 0  9995",
        "tle_line2": "2 66990   1.9567 285.0365 0003394 343.1605  17.4298  1.00271571   285"
      },
      "geometry": {
        "type": "Point",
        "coordinates": [
          -141.12362004860432,
          -1.7981925039745639
        ]
      }
    },
    {
      "type": "Feature",
      "properties": {
        "norad_id": 66991,
        "name": "CZ-3B R/B",
        "group": "last-30-days",
        "lat": 0.7137855946439281,
        "lon": -62.344657551830586,
        "alt_km": 33307.66319293948,
        "timestamp": "2025-12-26T03:50:10.809836+00:00",
        "meta_object_name": "CZ-3B R/B",
        "meta_object_id": "2025-290B",
        "meta_epoch": "2025-12-15T17:23:33.043200",
        "meta_mean_motion": 2.38388611,
        "meta_eccentricity": 0.7240884,
        "meta_inclination": 28.4636,
        "meta_ra_of_asc_node": 300.4666,
        "meta_arg_of_pericenter": 182.7002,
        "meta_mean_anomaly": 168.625,
        "meta_ephemeris_type": 0,
        "meta_classification_type": "U",
        "meta_norad_cat_id": 66991,
        "meta_element_set_no": 999,
        "meta_rev_at_epoch": 16,
        "meta_bstar": 0.00075879,
        "meta_mean_motion_dot": 0.00057911,
        "meta_mean_motion_ddot": -2.0514e-07,
        "tle_line1": "1 66991U 25290B   25349.72468800  .00057911 -20514-6  75879-3 0  9998",
        "tle_line2": "2 66991  28.4636 300.4666 7240884 182.7002 168.6250  2.38388611   165"
      },
      "geometry": {
        "type": "Point",
        "coordinates": [
          -62.344657551830586,
          0.7137855946439281
        ]
      }
    },
    {
      "type": "Feature",
      "properties": {
        "norad_id": 66993,
        "name": "2025-292A",
        "group": "last-30-days",
        "lat": -78.23648937731888,
        "lon": 112.77315212585415,
        "alt_km": 554.2259892426819,
        "timestamp": "2025-12-26T03:50:10.809847+00:00",
        "meta_object_name": "2025-292A",
        "meta_object_id": "2025-292A",
        "meta_epoch": "2025-12-25T20:12:56.147328",
        "meta_mean_motion": 15.04592044,
        "meta_eccentricity": 0.0014674,
        "meta_inclination": 97.6493,
        "meta_ra_of_asc_node": 72.2651,
        "meta_arg_of_pericenter": 225.2524,
        "meta_mean_anomaly": 134.7509,
        "meta_ephemeris_type": 0,
        "meta_classification_type": "U",
        "meta_norad_cat_id": 66993,
        "meta_element_set_no": 999,
        "meta_rev_at_epoch": 236,
        "meta_bstar": 0.00031843,
        "meta_mean_motion_dot": 4.418e-05,
        "meta_mean_motion_ddot": 0,
        "tle_line1": "1 66993U 25292A   25359.84231652  .00004418  00000+0  31843-3 0  9996",
        "tle_line2": "2 66993  97.6493  72.2651 0014674 225.2524 134.7509 15.04592044  2364"
      },
      "geometry": {
        "type": "Point",
        "coordinates": [
          112.77315212585415,
          -78.23648937731888
        ]
      }
    },
    {
      "type": "Feature",
      "properties": {
        "norad_id": 66994,
        "name": "2025-292B",
        "group": "last-30-days",
        "lat": -76.17957624500573,
        "lon": 105.70184607731136,
        "alt_km": 554.4749554987084,
        "timestamp": "2025-12-26T03:50:10.809857+00:00",
        "meta_object_name": "2025-292B",
        "meta_object_id": "2025-292B",
        "meta_epoch": "2025-12-25T20:12:15.794208",
        "meta_mean_motion": 15.04641571,
        "meta_eccentricity": 0.0014457,
        "meta_inclination": 97.6502,
        "meta_ra_of_asc_node": 72.2673,
        "meta_arg_of_pericenter": 225.5921,
        "meta_mean_anomaly": 134.4123,
        "meta_ephemeris_type": 0,
        "meta_classification_type": "U",
        "meta_norad_cat_id": 66994,
        "meta_element_set_no": 999,
        "meta_rev_at_epoch": 236,
        "meta_bstar": 0.00035612,
        "meta_mean_motion_dot": 4.955e-05,
        "meta_mean_motion_ddot": 0,
        "tle_line1": "1 66994U 25292B   25359.84184947  .00004955  00000+0  35612-3 0  9995",
        "tle_line2": "2 66994  97.6502  72.2673 0014457 225.5921 134.4123 15.04641571  2362"
      },
      "geometry": {
        "type": "Point",
        "coordinates": [
          105.70184607731136,
          -76.17957624500573
        ]
      }
    },
    {
      "type": "Feature",
      "properties": {
        "norad_id": 66995,
        "name": "2025-292C",
        "group": "last-30-days",
        "lat": -75.25083824082294,
        "lon": 103.27925642157754,
        "alt_km": 554.3908938389604,
        "timestamp": "2025-12-26T03:50:10.809867+00:00",
        "meta_object_name": "2025-292C",
        "meta_object_id": "2025-292C",
        "meta_epoch": "2025-12-25T05:50:07.257120",
        "meta_mean_motion": 15.04668363,
        "meta_eccentricity": 0.0014688,
        "meta_inclination": 97.6495,
        "meta_ra_of_asc_node": 71.6733,
        "meta_arg_of_pericenter": 227.9665,
        "meta_mean_anomaly": 132.0312,
        "meta_ephemeris_type": 0,
        "meta_classification_type": "U",
        "meta_norad_cat_id": 66995,
        "meta_element_set_no": 999,
        "meta_rev_at_epoch": 227,
        "meta_bstar": 0.00041226,
        "meta_mean_motion_dot": 5.751e-05,
        "meta_mean_motion_ddot": 0,
        "tle_line1": "1 66995U 25292C   25359.24313955  .00005751  00000+0  41226-3 0  9996",
        "tle_line2": "2 66995  97.6495  71.6733 0014688 227.9665 132.0312 15.04668363  2273"
      },
      "geometry": {
        "type": "Point",
        "coordinates": [
          103.27925642157754,
          -75.25083824082294
        ]
      }
    },
    {
      "type": "Feature",
      "properties": {
        "norad_id": 66996,
        "name": "2025-292D",
        "group": "last-30-days",
        "lat": -73.53753985078919,
        "lon": 99.63273457487558,
        "alt_km": 554.6098316108219,
        "timestamp": "2025-12-26T03:50:10.809877+00:00",
        "meta_object_name": "2025-292D",
        "meta_object_id": "2025-292D",
        "meta_epoch": "2025-12-25T05:49:36.025248",
        "meta_mean_motion": 15.04678565,
        "meta_eccentricity": 0.0013797,
        "meta_inclination": 97.6491,
        "meta_ra_of_asc_node": 71.6729,
        "meta_arg_of_pericenter": 230.5158,
        "meta_mean_anomaly": 129.4848,
        "meta_ephemeris_type": 0,
        "meta_classification_type": "U",
        "meta_norad_cat_id": 66996,
        "meta_element_set_no": 999,
        "meta_rev_at_epoch": 227,
        "meta_bstar": 0.00027339,
        "meta_mean_motion_dot": 3.792e-05,
        "meta_mean_motion_ddot": 0,
        "tle_line1": "1 66996U 25292D   25359.24277807  .00003792  00000+0  27339-3 0  9994",
        "tle_line2": "2 66996  97.6491  71.6729 0013797 230.5158 129.4848 15.04678565  2271"
      },
      "geometry": {
        "type": "Point",
        "coordinates": [
          99.63273457487558,
          -73.53753985078919
        ]
      }
    }
  ]
}